OBJECT_NAME,OBJECT_ID,EPOCH,MEAN_MOTION,ECCENTRICITY,INCLINATION,RA_OF_ASC_NODE,ARG_OF_PERICENTER,MEAN_ANOMALY,EPHEMERIS_TYPE,CLASSIFICATION_TYPE,NORAD_CAT_ID,ELEMENT_SET_NO,REV_AT_EPOCH,BSTAR,MEAN_MOTION_DOT,MEAN_MOTION_DDOT
SCD 1,1993-009B,2026-06-20T07:58:07.994208,14.46119674,.0041952,24.9675,188.1587,170.9157,213.0702,0,U,22490,999,76157,.3451E-4,.313E-5,0
TECHSAT 1B (GO-32),1998-043D,2026-06-20T10:27:54.995616,14.24428915,.0001219,99.0068,164.2767,156.5266,203.5967,0,U,25397,999,45179,.3389E-4,.32E-6,0
SCD 2,1998-060A,2026-06-20T01:48:34.661088,14.45526782,.0016856,24.9960,54.3455,153.1205,320.9038,0,U,25504,999,46074,.44252353E-4,.341E-5,0
DLR-TUBSAT,1999-029B,2026-06-19T23:31:24.910752,14.52427375,.00138683,98.6694,166.5761,346.6123,13.4702,0,U,25757,999,43365,.23075183E-4,.46E-6,0
TERRA,1999-068A,2026-06-20T10:34:48.156960,14.61105267,.0001842,97.9454,220.8581,178.7606,238.1366,0,U,25994,999,41008,.65041E-4,.275E-5,0
MAROC-TUBSAT,2001-056D,2026-06-20T08:56:33.256896,13.70262541,.0020418,99.8084,348.2921,133.3391,346.0489,0,U,27004,999,22662,.13845E-4,-.34E-6,0
AQUA,2002-022A,2026-06-20T10:11:34.436832,14.62162126,.0000982,98.4278,140.7722,55.9702,96.4678,0,U,27424,999,28374,.12157E-3,.562E-5,0
SHIYAN-1 (SY-1),2004-012A,2026-06-20T04:25:52.174560,15.33824479,.00053065,97.8685,249.4480,22.5113,337.6360,0,U,28220,999,21155,.34056659E-3,.11063E-3,0
AURA,2004-026A,2026-06-20T09:49:55.166592,14.61333094,.0001187,98.3418,127.8897,77.8282,282.3052,0,U,28376,999,16668,.12442E-3,.566E-5,0
IRS-P5 (CARTOSAT-1),2005-017A,2026-06-20T00:44:44.141280,14.91055438,.00025258,97.5305,193.9666,76.4954,283.6546,0,U,28649,999,14424,.10255078E-3,.963E-5,0
SINAH 1,2005-043D,2026-06-20T09:40:00.249888,14.64159377,.0013138,98.2865,305.7437,265.6982,94.2719,0,U,28893,999,10099,.51932E-4,.224E-5,0
RESURS-DK 1,2006-021A,2026-06-20T09:45:31.459104,15.13228164,.0006868,69.9331,331.2197,290.2744,69.7684,0,U,29228,999,10306,.87373E-4,.1448E-4,0
ARIRANG-2 (KOMPSAT-2),2006-031A,2026-06-21T04:36:55.518336,14.64661985,.0015834,97.8311,356.4445,63.0830,26.6564,0,U,29268,999,6206,.49147E-4,.217E-5,0
LAPAN-TUBSAT,2007-001A,2026-06-21T05:27:18.050400,14.85954535,.0012277,98.1345,171.5427,166.0462,194.1094,0,U,29709,999,5175,.88013E-4,.711E-5,0
HAIYANG-1B,2007-010A,2026-06-20T10:20:43.240992,14.31027586,.0013231,98.3495,153.1505,186.4668,173.6347,0,U,31113,999,110,.41288E-4,.67E-6,0
COSMO-SKYMED 1,2007-023A,2026-06-21T03:29:07.117728,14.97116981,.0001591,97.8853,4.0340,96.8472,263.2930,0,U,31598,999,3038,.2066E-3,.2324E-4,0
TERRASAR-X,2007-026A,2026-06-19T11:55:50.815488,15.19151206,.00015727,97.4452,178.1696,90.3933,269.7482,0,U,31698,999,5357,.10103879E-4,.145E-5,0
WORLDVIEW-1 (WV-1),2007-041A,2026-06-20T10:38:05.104032,15.24296645,.0001947,97.3881,291.1401,10.6143,349.5135,0,U,32060,999,4337,.197E-3,.4743E-4,0
YAOGAN-3,2007-055A,2026-06-21T03:42:33.613344,14.90791156,.0001724,97.8146,201.9931,83.1227,277.0188,0,U,32289,999,646,.14021E-3,.1323E-4,0
COSMO-SKYMED 2,2007-059A,2026-06-21T03:27:35.794656,14.82157691,.0001348,97.8888,355.6846,88.4030,271.7337,0,U,32376,999,259,.4231E-4,.285E-5,0
RADARSAT-2,2007-061A,2026-06-21T03:59:10.595904,14.29982011,.0001309,98.5779,179.0421,85.8361,274.2971,0,U,32382,999,96652,-.16305E-4,-.86E-6,0
CARTOSAT-2A,2008-021A,2026-06-21T04:08:48.174720,14.79245071,.0013285,97.7626,220.7456,97.4293,262.8429,0,U,32783,999,97939,.12638E-3,.89E-5,0
HUANJING 1A (HJ-1A),2008-041A,2026-06-21T05:05:14.270208,14.83994434,.0020277,97.6689,157.8955,122.2107,238.1077,0,U,33320,999,95900,.11442E-3,.904E-5,0
HUANJING 1B (HJ-1B),2008-041B,2026-06-21T06:00:28.797984,14.83321457,.0036419,97.6523,161.0914,167.6489,192.5627,0,U,33321,999,95901,.90964E-4,.701E-5,0
GEOEYE 1,2008-042A,2026-06-20T10:20:32.111808,14.64728217,.0005299,98.1235,245.3211,61.7686,298.4052,0,U,33331,999,95062,.69364E-4,.322E-5,0
THEOS,2008-049A,2026-06-21T04:42:32.366880,14.20134098,.0001182,98.5564,229.3501,82.0873,278.0439,0,U,33396,999,91853,.41661E-4,.46E-6,0
COSMO-SKYMED 3,2008-054A,2026-06-21T04:38:44.240640,15.06973575,.0013899,97.8282,30.8304,251.1652,108.8068,0,U,33412,999,95754,.20816E-3,.3054E-4,0
YAOGAN-4,2008-061A,2026-06-20T09:43:38.987904,14.83205273,.001563,97.9306,104.8918,62.9607,297.3200,0,U,33446,999,94614,.98778E-4,.754E-5,0
GOSAT (IBUKI),2009-002A,2026-06-20T04:57:26.151552,14.67540318,.00014723,98.0896,282.2496,79.8858,280.2513,0,U,33492,999,93190,.15399744E-3,.825E-5,0
DEIMOS-1,2009-041A,2026-06-21T04:30:57.146688,14.75238942,.0001946,97.7414,329.2421,127.3971,232.7416,0,U,35681,999,90747,.85089E-5,.1E-6,0
